NORAD_CAT_ID,OBJECT_NAME,OBJECT_TYPE,EPOCH,MEAN_MOTION,ECCENTRICITY,INCLINATION,RA_OF_ASC_NODE,ARG_OF_PERICENTER,MEAN_ANOMALY,BSTAR,MEAN_MOTION_DOT,MEAN_MOTION_DDOT,TLE_LINE0,TLE_LINE1,TLE_LINE2,SEMIMAJOR_AXIS,PERIOD,APOGEE,PERIGEE,DECAYED
53416.0,STARLINK-4480,PAYLOAD,2023-02-27 00:00:00,15.10583439,0.0001339,53.217,42.2086,116.5393,217.8405,-0.021635,-0.00344654,0.0,0 STARLINK-4480,1 53416U 22097AE  23058.00001157 -.00344654  00000-0 -21635-1 0  9997,2 53416  53.2170  42.2086 0001339 116.5393 217.8405 15.10583439  1305,6912.557,95.327,535.347,533.496,0.0
53416.0,STARLINK-4480,PAYLOAD,2023-02-27 08:00:01,15.10329349,0.0001425,53.217,40.7098,97.1201,250.8096,-0.028169,-0.00439697,0.0,0 STARLINK-4480,1 53416U 22097AE  23058.33334491 -.00439697  00000-0 -28169-1 0  9994,2 53416  53.2170  40.7098 0001425  97.1201 250.8096 15.10329349 31145,6913.332,95.343,536.182,534.212,0.0
53416.0,STARLINK-4480,PAYLOAD,2023-02-27 14:00:01,15.10121917,0.0001497,53.2167,39.5839,98.2262,169.6339,-0.033712,-0.00522861,0.0,0 STARLINK-4480,1 53416U 22097AE  23058.58334491 -.00522861  00000-0 -33712-1 0  9997,2 53416  53.2167  39.5839 0001497  98.2262 169.6339 15.10121917  1301,6913.965,95.357,536.865,534.795,0.0
53416.0,STARLINK-4480,PAYLOAD,2023-02-27 22:00:01,15.09772127,0.0001644,53.2168,38.0837,103.3267,177.5027,-0.029887,-0.00458198,0.0,0 STARLINK-4480,1 53416U 22097AE  23058.91668981 -.00458198  00000-0 -29887-1 0  9997,2 53416  53.2168  38.0837 0001644 103.3267 177.5027 15.09772127 31220,6915.033,95.379,538.035,535.761,0.0
53416.0,STARLINK-4480,PAYLOAD,2023-02-28 06:17:43,15.09711415,0.000243,53.2176,36.5312,111.5257,248.5995,-0.013594,-0.00215349,0.0,0 STARLINK-4480,1 53416U 22097AE  23059.26230342 -.00215349  00000-0 -13594-1 0  9999,2 53416  53.2176  36.5312 0002430 111.5257 248.5995 15.09711415 31286,6915.218,95.382,538.764,535.403,0.0
53416.0,STARLINK-4480,PAYLOAD,2023-02-28 09:28:27,15.0962351,0.0002947,53.2179,35.9367,66.0763,294.0538,-0.01345,-0.00212648,0.0,0 STARLINK-4480,1 53416U 22097AE  23059.39475734 -.00212648  00000-0 -13450-1 0  9999,2 53416  53.2179  35.9367 0002947  66.0763 294.0538 15.09623510 31761,6915.487,95.388,539.39,535.314,0.0
53416.0,STARLINK-4480,PAYLOAD,2023-02-28 18:00:00,15.08858116,0.00015,53.2171,34.3398,96.289,35.0491,-0.0040617,-0.00064384,0.0,0 STARLINK-4480,1 53416U 22097AE  23059.75001157 -.00064384  00000-0 -40617-2 0  9991,2 53416  53.2171  34.3398 0001500  96.2890  35.0491 15.08858116 31357,6917.825,95.436,540.728,538.652,0.0
53416.0,STARLINK-4480,PAYLOAD,2023-02-28 22:00:00,15.08806808,0.0001634,53.2172,33.5914,97.7582,219.3863,0.0016151,0.00025486,0.0,0 STARLINK-4480,1 53416U 22097AE  23059.91667824  .00025486  00000-0  16151-2 0  9992,2 53416  53.2172  33.5914 0001634  97.7582 219.3863 15.08806808  1308,6917.982,95.44,540.977,538.716,0.0
53416.0,STARLINK-4480,PAYLOAD,2023-03-01 06:00:00,15.08838898,0.0001521,53.2173,32.0969,90.7596,237.9698,-0.0025968,-0.00041378,0.0,0 STARLINK-4480,1 53416U 22097AE  23060.25001157 -.00041378  00000-0 -25968-2 0  9998,2 53416  53.2173  32.0969 0001521  90.7596 237.9698 15.08838898 31439,6917.884,95.438,540.801,538.697,0.0
53416.0,STARLINK-4480,PAYLOAD,2023-03-01 22:00:00,15.0883044,0.0001418,53.2177,29.1024,100.6217,251.2517,0.0029055,0.00046244,0.0,0 STARLINK-4480,1 53416U 22097AE  23060.91667824  .00046244  00000-0  29055-2 0  9996,2 53416  53.2177  29.1024 0001418 100.6217 251.2517 15.08830440 31533,6917.91,95.438,540.756,538.794,0.0
53416.0,STARLINK-4480,PAYLOAD,2023-03-02 00:00:00,15.08862525,0.0001409,53.2176,28.7288,97.521,347.2433,-0.0009597,-0.00015538,0.0,0 STARLINK-4480,1 53416U 22097AE  23061.00001157 -.00015538  00000-0 -95970-3 0  9992,2 53416  53.2176  28.7288 0001409  97.5210 347.2433 15.08862525  1300,6917.812,95.436,540.651,538.702,0.0
53416.0,STARLINK-4480,PAYLOAD,2023-03-02 20:00:01,15.0882704,0.000134,53.2176,24.9871,95.5191,198.2511,0.0046239,0.00074049,0.0,0 STARLINK-4480,1 53416U 22097AE  23061.83334491  .00074049  00000-0  46239-2 0  9996,2 53416  53.2176  24.9871 0001340  95.5191 198.2511 15.08827040  1300,6917.92,95.438,540.712,538.858,0.0
53416.0,STARLINK-4480,PAYLOAD,2023-03-03 14:00:01,15.08838537,9.17e-05,53.2177,21.6209,97.9545,311.9541,0.0014307,0.00022554,0.0,0 STARLINK-4480,1 53416U 22097AE  23062.58334491  .00022554  00000-0  14307-2 0  9994,2 53416  53.2177  21.6209 0000917  97.9545 311.9541 15.08838537 31783,6917.885,95.438,540.384,539.115,0.0
53416.0,STARLINK-4480,PAYLOAD,2023-03-03 22:00:00,15.08874404,9.38e-05,53.2179,20.1243,102.3691,319.1362,0.0024167,0.0003842,0.0,0 STARLINK-4480,1 53416U 22097AE  23062.91667824  .00038420  00000-0  24167-2 0  9994,2 53416  53.2179  20.1243 0000938 102.3691 319.1362 15.08874404  1302,6917.775,95.435,540.289,538.991,0.0
53416.0,STARLINK-4480,PAYLOAD,2023-03-04 04:05:16,15.08884119,0.0001491,53.2186,18.9888,110.1136,250.0017,0.0012152,0.00019128,0.0,0 STARLINK-4480,1 53416U 22097AE  23063.17033268  .00019128  00000-0  12152-2 0  9997,2 53416  53.2186  18.9888 0001491 110.1136 250.0017 15.08884119 31875,6917.746,95.435,540.642,538.579,0.0
53416.0,STARLINK-4480,PAYLOAD,2023-03-04 21:34:31,15.088481,0.0001341,53.2187,15.7172,105.9248,254.1892,0.0015305,0.00024159,0.0,0 STARLINK-4480,1 53416U 22097AE  23063.89897989  .00024159  00000-0  15305-2 0  9997,2 53416  53.2187  15.7172 0001341 105.9248 254.1892 15.08848100 31985,6917.856,95.437,540.648,538.793,0.0
53416.0,STARLINK-4480,PAYLOAD,2023-03-04 23:09:55,15.08818247,0.0002753,53.2186,15.4192,324.3052,35.7755,0.00097151,0.00015199,0.0,0 STARLINK-4480,1 53416U 22097AE  23063.96522297  .00015199  00000-0  97151-3 0  9996,2 53416  53.2186  15.4192 0002753 324.3052  35.7755 15.08818247 31992,6917.947,95.439,541.716,537.907,0.0
53416.0,STARLINK-4480,PAYLOAD,2023-03-06 05:22:14,15.08899844,9.68e-05,53.2181,9.7689,84.9151,275.1952,0.0029337,0.00046789,0.0,0 STARLINK-4480,1 53416U 22097AE  23065.22377582  .00046789  00000-0  29337-2 0  9991,2 53416  53.2181   9.7689 0000968  84.9151 275.1952 15.08899844 32182,6917.697,95.434,540.232,538.893,0.0
53416.0,STARLINK-4480,PAYLOAD,2023-03-07 05:13:02,15.08850771,0.0001492,53.217,5.3084,70.5338,289.5815,0.002256,0.0003581,0.0,0 STARLINK-4480,1 53416U 22097AE  23066.21739098  .00035810  00000-0  22560-2 0  9999,2 53416  53.2170   5.3084 0001492  70.5338 289.5815 15.08850771 32332,6917.847,95.437,540.745,538.68,0.0
53416.0,STARLINK-4480,PAYLOAD,2023-03-07 19:31:31,15.08823233,0.0001349,53.2178,2.6317,71.8435,288.2704,0.0035204,0.0005616,0.0,0 STARLINK-4480,1 53416U 22097AE  23066.81356037  .00056160  00000-0  35204-2 0  9993,2 53416  53.2178   2.6317 0001349  71.8435 288.2704 15.08823233 32428,6917.932,95.439,540.73,538.863,0.0
53416.0,STARLINK-4480,PAYLOAD,2023-03-08 19:22:18,15.08854395,0.0002014,53.217,358.1712,88.208,271.9143,0.0018684,0.00029585,0.0,0 STARLINK-4480,1 53416U 22097AE  23067.80715934  .00029585  00000-0  18684-2 0  9992,2 53416  53.2170 358.1712 0002014  88.2080 271.9143 15.08854395 33033,6917.836,95.437,541.095,538.308,0.0
53416.0,STARLINK-4480,PAYLOAD,2023-03-09 00:08:28,15.08851117,0.0001497,53.2178,357.2776,96.3702,263.7461,0.0022451,0.00035635,0.0,0 STARLINK-4480,1 53416U 22097AE  23068.00588082  .00035635  00000-0  22451-2 0  9997,2 53416  53.2178 357.2776 0001497  96.3702 263.7461 15.08851117 32609,6917.846,95.437,540.747,538.676,0.0
53416.0,STARLINK-4480,PAYLOAD,2023-03-09 22:23:51,15.08859615,0.0001456,53.2177,353.115,66.4446,293.6699,0.001209,0.00019016,0.0,0 STARLINK-4480,1 53416U 22097AE  23068.93323983  .00019016  00000-0  12090-2 0  9999,2 53416  53.2177 353.1150 0001456  66.4446 293.6699 15.08859615 33200,6917.82,95.436,540.693,538.678,0.0
53416.0,STARLINK-4480,PAYLOAD,2023-03-10 01:34:37,15.08890564,0.0002798,53.2181,352.5221,14.3069,345.8002,0.0023175,0.00036841,0.0,0 STARLINK-4480,1 53416U 22097AE  23069.06571335  .00036841  00000-0  23175-2 0  9991,2 53416  53.2181 352.5221 0002798  14.3069 345.8002 15.08890564 32766,6917.726,95.434,541.526,537.655,0.0
53416.0,STARLINK-4480,PAYLOAD,2023-03-10 19:03:52,15.0883378,0.0001208,53.2181,349.2512,37.0964,323.0112,8.6748e-05,1.093e-05,0.0,0 STARLINK-4480,1 53416U 22097AE  23069.79436253  .00001093  00000-0  86748-4 0  9998,2 53416  53.2181 349.2512 0001208  37.0964 323.0112 15.08833780 32872,6917.899,95.438,540.6,538.929,0.0
53416.0,STARLINK-4480,PAYLOAD,2023-03-11 01:25:25,15.08840357,0.0001259,53.218,348.0618,45.4477,314.6618,0.00033994,5.126e-05,0.0,0 STARLINK-4480,1 53416U 22097AE  23070.05932348  .00005126  00000-0  33994-3 0  9990,2 53416  53.2180 348.0618 0001259  45.4477 314.6618 15.08840357 33374,6917.879,95.438,540.615,538.873,0.0
53416.0,STARLINK-4480,PAYLOAD,2023-03-12 04:26:58,15.08878833,0.0001439,53.2177,343.0062,52.8767,307.2357,0.0013443,0.00021194,0.0,0 STARLINK-4480,1 53416U 22097AE  23071.18539545  .00021194  00000-0  13443-2 0  9996,2 53416  53.2177 343.0062 0001439  52.8767 307.2357 15.08878833 33088,6917.762,95.435,540.622,538.631,0.0
53416.0,STARLINK-4480,PAYLOAD,2023-03-12 18:45:26,15.08842954,0.0001247,53.2172,340.331,71.041,289.0717,-0.00014828,-2.647e-05,0.0,0 STARLINK-4480,1 53416U 22097AE  23071.78155856 -.00002647  00000-0 -14828-3 0  9994,2 53416  53.2172 340.3310 0001247  71.0410 289.0717 15.08842954 33176,6917.871,95.437,540.599,538.874,0.0
53416.0,STARLINK-4480,PAYLOAD,2023-03-13 04:17:44,15.08865672,0.0001241,53.2165,338.5447,78.0937,282.0194,0.00090337,0.00014128,0.0,0 STARLINK-4480,1 53416U 22097AE  23072.17899245  .00014128  00000-0  90337-3 0  9999,2 53416  53.2165 338.5447 0001241  78.0937 282.0194 15.08865672 33234,6917.802,95.436,540.525,538.808,0.0
53416.0,STARLINK-4480,PAYLOAD,2023-03-13 21:47:00,15.08818591,9.94e-05,53.2164,335.2763,43.9223,316.1848,0.00075958,0.00011814,0.0,0 STARLINK-4480,1 53416U 22097AE  23072.90764962  .00011814  00000-0  75958-3 0  9998,2 53416  53.2164 335.2763 0000994  43.9223 316.1848 15.08818591 33807,6917.946,95.439,540.498,539.123,0.0
